{
  "type": "FeatureCollection",
  "features": [
    {
      "type": "Feature",
      "properties": {
        "norad_id": 61183,
        "name": "GSAT0226 (GALILEO 31)",
        "group": "gnss",
        "lat": -23.174195014440055,
        "lon": -151.10444581323716,
        "alt_km": 23227.835508292916,
        "timestamp": "2025-12-22T11:33:20.683765+00:00",
        "meta_object_name": "GSAT0226 (GALILEO 31)",
        "meta_object_id": "2024-167B",
        "meta_epoch": "2025-12-22T05:43:25.937760",
        "meta_mean_motion": 1.70473707,
        "meta_eccentricity": 0.0001178,
        "meta_inclination": 55.2367,
        "meta_ra_of_asc_node": 226.1757,
        "meta_arg_of_pericenter": 107.8451,
        "meta_mean_anomaly": 74.5096,
        "meta_ephemeris_type": 0,
        "meta_classification_type": "U",
        "meta_norad_cat_id": 61183,
        "meta_element_set_no": 999,
        "meta_rev_at_epoch": 783,
        "meta_bstar": 0,
        "meta_mean_motion_dot": 7.4e-07,
        "meta_mean_motion_ddot": 0,
        "tle_line1": "1 61183U 24167B   25356.23849465  .00000074  00000+0  00000+0 0  9990",
        "tle_line2": "2 61183  55.2367 226.1757 0001178 107.8451  74.5096  1.70473707  7837"
      },
      "geometry": {
        "type": "Point",
        "coordinates": [
          -151.10444581323716,
          -23.174195014440055
        ]
      }
    },
    {
      "type": "Feature",
      "properties": {
        "norad_id": 61186,
        "name": "BEIDOU-3 M25 (C47)",
        "group": "gnss",
        "lat": 27.003879118484363,
        "lon": 107.16520013795254,
        "alt_km": 21538.49602994032,
        "timestamp": "2025-12-22T11:33:20.683778+00:00",
        "meta_object_name": "BEIDOU-3 M25 (C47)",
        "meta_object_id": "2024-168B",
        "meta_epoch": "2025-12-21T10:54:12.559392",
        "meta_mean_motion": 1.86230226,
        "meta_eccentricity": 0.00054533,
        "meta_inclination": 54.6344,
        "meta_ra_of_asc_node": 308.4188,
        "meta_arg_of_pericenter": 299.6756,
        "meta_mean_anomaly": 237.8086,
        "meta_ephemeris_type": 0,
        "meta_classification_type": "U",
        "meta_norad_cat_id": 61186,
        "meta_element_set_no": 999,
        "meta_rev_at_epoch": 847,
        "meta_bstar": 0,
        "meta_mean_motion_dot": -6.3e-07,
        "meta_mean_motion_ddot": 0,
        "tle_line1": "1 61186U 24168B   25355.45431203 -.00000063  00000+0  00000+0 0  9993",
        "tle_line2": "2 61186  54.6344 308.4188 0005453 299.6756 237.8086  1.86230226  8476"
      },
      "geometry": {
        "type": "Point",
        "coordinates": [
          107.16520013795254,
          27.003879118484363
        ]
      }
    },
    {
      "type": "Feature",
      "properties": {
        "norad_id": 61187,
        "name": "BEIDOU-3 M27 (C49)",
        "group": "gnss",
        "lat": -53.1575267670337,
        "lon": -122.93429085202534,
        "alt_km": 21530.22749630509,
        "timestamp": "2025-12-22T11:33:20.683791+00:00",
        "meta_object_name": "BEIDOU-3 M27 (C49)",
        "meta_object_id": "2024-168C",
        "meta_epoch": "2025-12-22T03:50:36.507264",
        "meta_mean_motion": 1.86230347,
        "meta_eccentricity": 0.0002543,
        "meta_inclination": 54.6292,
        "meta_ra_of_asc_node": 308.3781,
        "meta_arg_of_pericenter": 340.4099,
        "meta_mean_anomaly": 85.2457,
        "meta_ephemeris_type": 0,
        "meta_classification_type": "U",
        "meta_norad_cat_id": 61187,
        "meta_element_set_no": 999,
        "meta_rev_at_epoch": 596,
        "meta_bstar": 0,
        "meta_mean_motion_dot": -5.9e-07,
        "meta_mean_motion_ddot": 0,
        "tle_line1": "1 61187U 24168C   25356.16014476 -.00000059  00000+0  00000+0 0  9997",
        "tle_line2": "2 61187  54.6292 308.3781 0002543 340.4099  85.2457  1.86230347  5961"
      },
      "geometry": {
        "type": "Point",
        "coordinates": [
          -122.93429085202534,
          -53.1575267670337
        ]
      }
    },
    {
      "type": "Feature",
      "properties": {
        "norad_id": 62339,
        "name": "GPS BIII-7  (PRN 01)",
        "group": "gnss",
        "lat": 54.60626902644334,
        "lon": 79.88211773186468,
        "alt_km": 20186.359346320278,
        "timestamp": "2025-12-22T11:33:20.683805+00:00",
        "meta_object_name": "GPS BIII-7  (PRN 01)",
        "meta_object_id": "2024-242A",
        "meta_epoch": "2025-12-18T08:46:28.895808",
        "meta_mean_motion": 2.00568182,
        "meta_eccentricity": 0.0012509,
        "meta_inclination": 54.922,
        "meta_ra_of_asc_node": 341.5124,
        "meta_arg_of_pericenter": 345.6877,
        "meta_mean_anomaly": 17.1618,
        "meta_ephemeris_type": 0,
        "meta_classification_type": "U",
        "meta_norad_cat_id": 62339,
        "meta_element_set_no": 999,
        "meta_rev_at_epoch": 763,
        "meta_bstar": 0,
        "meta_mean_motion_dot": -8.5e-07,
        "meta_mean_motion_ddot": 0,
        "tle_line1": "1 62339U 24242A   25352.36561222 -.00000085  00000+0  00000+0 0  9993",
        "tle_line2": "2 62339  54.9220 341.5124 0012509 345.6877  17.1618  2.00568182  7636"
      },
      "geometry": {
        "type": "Point",
        "coordinates": [
          79.88211773186468,
          54.60626902644334
        ]
      }
    },
    {
      "type": "Feature",
      "properties": {
        "norad_id": 62850,
        "name": "NVS-02 (IRNSS-1K)",
        "group": "gnss",
        "lat": -13.706440127943798,
        "lon": -176.33613794507482,
        "alt_km": 35825.10707269612,
        "timestamp": "2025-12-22T11:33:20.683817+00:00",
        "meta_object_name": "NVS-02 (IRNSS-1K)",
        "meta_object_id": "2025-020A",
        "meta_epoch": "2025-12-21T17:43:24.486240",
        "meta_mean_motion": 2.1760093,
        "meta_eccentricity": 0.7347352,
        "meta_inclination": 20.9619,
        "meta_ra_of_asc_node": 324.4018,
        "meta_arg_of_pericenter": 32.067,
        "meta_mean_anomaly": 356.4982,
        "meta_ephemeris_type": 0,
        "meta_classification_type": "U",
        "meta_norad_cat_id": 62850,
        "meta_element_set_no": 999,
        "meta_rev_at_epoch": 711,
        "meta_bstar": 0.00018832,
        "meta_mean_motion_dot": 1.08e-06,
        "meta_mean_motion_ddot": 0,
        "tle_line1": "1 62850U 25020A   25355.73847785  .00000108  00000+0  18832-3 0  9992",
        "tle_line2": "2 62850  20.9619 324.4018 7347352  32.0670 356.4982  2.17600930  7115"
      },
      "geometry": {
        "type": "Point",
        "coordinates": [
          -176.33613794507482,
          -13.706440127943798
        ]
      }
    },
    {
      "type": "Feature",
      "properties": {
        "norad_id": 62876,
        "name": "QZS-6 (QZSS/PRN 200)",
        "group": "gnss",
        "lat": -0.05459747152343474,
        "lon": -4.822839068032867,
        "alt_km": 35784.496323754654,
        "timestamp": "2025-12-22T11:33:20.683829+00:00",
        "meta_object_name": "QZS-6 (QZSS/PRN 200)",
        "meta_object_id": "2025-023A",
        "meta_epoch": "2025-12-21T11:55:02.610336",
        "meta_mean_motion": 1.0027204,
        "meta_eccentricity": 0.00015008,
        "meta_inclination": 0.0512,
        "meta_ra_of_asc_node": 70.3609,
        "meta_arg_of_pericenter": 209.4856,
        "meta_mean_anomaly": 79.7745,
        "meta_ephemeris_type": 0,
        "meta_classification_type": "U",
        "meta_norad_cat_id": 62876,
        "meta_element_set_no": 999,
        "meta_rev_at_epoch": 317,
        "meta_bstar": 0,
        "meta_mean_motion_dot": -2.11e-06,
        "meta_mean_motion_ddot": 0,
        "tle_line1": "1 62876U 25023A   25355.49655799 -.00000211  00000+0  00000+0 0  9998",
        "tle_line2": "2 62876   0.0512  70.3609 0001500 209.4856  79.7745  1.00272040  3170"
      },
      "geometry": {
        "type": "Point",
        "coordinates": [
          -4.822839068032867,
          -0.05459747152343474
        ]
      }
    },
    {
      "type": "Feature",
      "properties": {
        "norad_id": 63130,
        "name": "COSMOS 2584 (704K)",
        "group": "gnss",
        "lat": -11.533721327828063,
        "lon": -95.71250258078292,
        "alt_km": 19114.141773022075,
        "timestamp": "2025-12-22T11:33:20.683840+00:00",
        "meta_object_name": "COSMOS 2584 (704K)",
        "meta_object_id": "2025-042A",
        "meta_epoch": "2025-12-21T07:00:00.966240",
        "meta_mean_motion": 2.13103074,
        "meta_eccentricity": 0.00077364,
        "meta_inclination": 64.9804,
        "meta_ra_of_asc_node": 78.8547,
        "meta_arg_of_pericenter": 219.241,
        "meta_mean_anomaly": 140.7412,
        "meta_ephemeris_type": 0,
        "meta_classification_type": "U",
        "meta_norad_cat_id": 63130,
        "meta_element_set_no": 999,
        "meta_rev_at_epoch": 625,
        "meta_bstar": 0,
        "meta_mean_motion_dot": -1.1e-07,
        "meta_mean_motion_ddot": 0,
        "tle_line1": "1 63130U 25042A   25355.29167785 -.00000011  00000+0  00000+0 0  9992",
        "tle_line2": "2 63130  64.9804  78.8547 0007736 219.2410 140.7412  2.13103074  6250"
      },
      "geometry": {
        "type": "Point",
        "coordinates": [
          -95.71250258078292,
          -11.533721327828063
        ]
      }
    }
  ]
}